start=new Date('2022-02-23T00:00:00.000Z').valueOf();
sats=[{"APOAPSIS":"541.009","EPOCH":"2022-02-22T22:00:00.999936","RA_OF_ASC_NODE":"294.2495","PERIOD":"95.439","REF_FRAME":"TEME","MEAN_MOTION":"15.08813639","PERIAPSIS":"538.643","CLASSIFICATION_TYPE":"U","MEAN_MOTION_DDOT":"0.0000000000000","OBJECT_TYPE":"PAYLOAD","NORAD_CAT_ID":"49749","MEAN_ELEMENT_THEORY":"SGP4","RCS_SIZE":"LARGE","DECAY_DATE":null,"OBJECT_NAME":"STARLINK-3250","TLE_LINE1":"1 49749U 21115AB  22053.91667824  .00014733  00000-0  94249-3 0  9997","MEAN_ANOMALY":"139.1729","COUNTRY_CODE":"US","SITE":"AFETR","MEAN_MOTION_DOT":"0.00014733","ELEMENT_SET_NO":"999","EPHEMERIS_TYPE":"0","CENTER_NAME":"EARTH","BSTAR":"0.00094249000000","TLE_LINE2":"2 49749  53.1968 294.2495 0001710  63.2454 139.1729 15.08813639  3611","SEMIMAJOR_AXIS":"6917.961","INCLINATION":"53.1968","OBJECT_ID":"2021-115AB","ECCENTRICITY":"0.00017100","GP_ID":"196686670","FILE":"3314780","TIME_SYSTEM":"UTC","REV_AT_EPOCH":"361","LAUNCH_DATE":"2021-12-02","ARG_OF_PERICENTER":"63.2454"},{"SEMIMAJOR_AXIS":"6917.807","TLE_LINE2":"2 49750  53.2159 294.1044 0001598  49.7177  52.6986 15.08863897  3615","BSTAR":"-0.00117320000000","CENTER_NAME":"EARTH","OBJECT_ID":"2021-115AC","INCLINATION":"53.2159","COUNTRY_CODE":"US","MEAN_ANOMALY":"52.6986","TLE_LINE1":"1 49750U 21115AC  22053.91667824 -.00018923  00000-0 -11732-2 0  9991","OBJECT_NAME":"STARLINK-3236","EPHEMERIS_TYPE":"0","MEAN_MOTION_DOT":"-0.00018923","SITE":"AFETR","ELEMENT_SET_NO":"999","REV_AT_EPOCH":"361","LAUNCH_DATE":"2021-12-02","ARG_OF_PERICENTER":"49.7177","GP_ID":"196685418","ECCENTRICITY":"0.00015980","TIME_SYSTEM":"UTC","FILE":"3314780","REF_FRAME":"TEME","PERIAPSIS":"538.567","MEAN_MOTION":"15.08863897","APOAPSIS":"540.778","PERIOD":"95.436","RA_OF_ASC_NODE":"294.1044","EPOCH":"2022-02-22T22:00:00.999936","NORAD_CAT_ID":"49750","DECAY_DATE":null,"RCS_SIZE":"LARGE","MEAN_ELEMENT_THEORY":"SGP4","MEAN_MOTION_DDOT":"0.0000000000000","CLASSIFICATION_TYPE":"U","OBJECT_TYPE":"PAYLOAD"},{"REF_FRAME":"TEME","PERIAPSIS":"538.437","MEAN_MOTION":"15.08855960","APOAPSIS":"540.956","RA_OF_ASC_NODE":"293.9786","PERIOD":"95.437","EPOCH":"2022-02-22T22:00:00.999936","NORAD_CAT_ID":"49751","DECAY_DATE":null,"RCS_SIZE":"LARGE","MEAN_ELEMENT_THEORY":"SGP4","MEAN_MOTION_DDOT":"0.0000000000000","CLASSIFICATION_TYPE":"U","OBJECT_TYPE":"PAYLOAD","SEMIMAJOR_AXIS":"6917.832","TLE_LINE2":"2 49751  53.2240 293.9786 0001821  61.1475 101.2457 15.08855960  3622","BSTAR":"-0.00110230000000","CENTER_NAME":"EARTH","OBJECT_ID":"2021-115AD","INCLINATION":"53.2240","COUNTRY_CODE":"US","TLE_LINE1":"1 49751U 21115AD  22053.91667824 -.00017796  00000-0 -11023-2 0  9992","MEAN_ANOMALY":"101.2457","OBJECT_NAME":"STARLINK-3229","EPHEMERIS_TYPE":"0","SITE":"AFETR","MEAN_MOTION_DOT":"-0.00017796","ELEMENT_SET_NO":"999","LAUNCH_DATE":"2021-12-02","REV_AT_EPOCH":"362","ARG_OF_PERICENTER":"61.1475","GP_ID":"196685668","ECCENTRICITY":"0.00018210","FILE":"3314780","TIME_SYSTEM":"UTC"},{"BSTAR":"-0.00168740000000","CENTER_NAME":"EARTH","SEMIMAJOR_AXIS":"6822.735","TLE_LINE2":"2 49752  53.2169 291.0796 0003462  13.5245 103.6863 15.40511866  3641","INCLINATION":"53.2169","OBJECT_ID":"2021-115AE","TLE_LINE1":"1 49752U 21115AE  22053.91667824 -.00069301  00000-0 -16874-2 0  9991","MEAN_ANOMALY":"103.6863","OBJECT_NAME":"STARLINK-3209","COUNTRY_CODE":"US","EPHEMERIS_TYPE":"0","ELEMENT_SET_NO":"999","SITE":"AFETR","MEAN_MOTION_DOT":"-0.00069301","LAUNCH_DATE":"2021-12-02","REV_AT_EPOCH":"364","ARG_OF_PERICENTER":"13.5245","ECCENTRICITY":"0.00034620","GP_ID":"196686920","FILE":"3314780","TIME_SYSTEM":"UTC","REF_FRAME":"TEME","MEAN_MOTION":"15.40511866","PERIAPSIS":"442.238","APOAPSIS":"446.962","EPOCH":"2022-02-22T22:00:00.999936","RA_OF_ASC_NODE":"291.0796","PERIOD":"93.475","NORAD_CAT_ID":"49752","RCS_SIZE":"LARGE","MEAN_ELEMENT_THEORY":"SGP4","DECAY_DATE":null,"MEAN_MOTION_DDOT":"0.0000000000000","CLASSIFICATION_TYPE":"U","OBJECT_TYPE":"PAYLOAD"},{"EPOCH":"2022-02-22T22:00:00.999936","PERIOD":"95.436","RA_OF_ASC_NODE":"294.0661","APOAPSIS":"540.729","MEAN_MOTION":"15.08867577","PERIAPSIS":"538.594","REF_FRAME":"TEME","OBJECT_TYPE":"PAYLOAD","MEAN_MOTION_DDOT":"0.0000000000000","CLASSIFICATION_TYPE":"U","RCS_SIZE":"LARGE","MEAN_ELEMENT_THEORY":"SGP4","DECAY_DATE":null,"NORAD_CAT_ID":"49753","EPHEMERIS_TYPE":"0","MEAN_MOTION_DOT":"-0.00017813","SITE":"AFETR","ELEMENT_SET_NO":"999","TLE_LINE1":"1 49753U 21115AF  22053.91667824 -.00017813  00000-0 -11030-2 0  9992","MEAN_ANOMALY":"72.3510","OBJECT_NAME":"STARLINK-3200","COUNTRY_CODE":"US","OBJECT_ID":"2021-115AF","INCLINATION":"53.2219","BSTAR":"-0.00110300000000","CENTER_NAME":"EARTH","SEMIMAJOR_AXIS":"6917.796","TLE_LINE2":"2 49753  53.2219 294.0661 0001543  50.2015  72.3510 15.08867577  3618","FILE":"3314780","TIME_SYSTEM":"UTC","ECCENTRICITY":"0.00015430","GP_ID":"196687171","ARG_OF_PERICENTER":"50.2015","REV_AT_EPOCH":"361","LAUNCH_DATE":"2021-12-02"},{"COUNTRY_CODE":"US","OBJECT_NAME":"STARLINK-3193","MEAN_ANOMALY":"107.2381","TLE_LINE1":"1 49754U 21115AG  22053.91667824 -.00243654  00000-0 -62382-2 0  9993","SITE":"AFETR","MEAN_MOTION_DOT":"-0.00243654","ELEMENT_SET_NO":"999","EPHEMERIS_TYPE":"0","TLE_LINE2":"2 49754  53.2174 291.0728 0003296   6.0919 107.2381 15.39804038  3643","SEMIMAJOR_AXIS":"6824.825","CENTER_NAME":"EARTH","BSTAR":"-0.00623820000000","OBJECT_ID":"2021-115AG","INCLINATION":"53.2174","GP_ID":"196685919","ECCENTRICITY":"0.00032960","FILE":"3314780","TIME_SYSTEM":"UTC","REV_AT_EPOCH":"364","LAUNCH_DATE":"2021-12-02","ARG_OF_PERICENTER":"6.0919","APOAPSIS":"448.940","RA_OF_ASC_NODE":"291.0728","PERIOD":"93.518","EPOCH":"2022-02-22T22:00:00.999936","REF_FRAME":"TEME","PERIAPSIS":"444.441","MEAN_MOTION":"15.39804038","CLASSIFICATION_TYPE":"U","MEAN_MOTION_DDOT":"0.0000000000000","OBJECT_TYPE":"PAYLOAD","NORAD_CAT_ID":"49754","DECAY_DATE":null,"MEAN_ELEMENT_THEORY":"SGP4","RCS_SIZE":"LARGE"},{"INCLINATION":"53.2169","OBJECT_ID":"2021-115AH","BSTAR":"-0.00120000000000","CENTER_NAME":"EARTH","SEMIMAJOR_AXIS":"6917.804","TLE_LINE2":"2 49755  53.2169 294.1063 0001881  51.8508  30.5740 15.08865109  3610","EPHEMERIS_TYPE":"0","SITE":"AFETR","MEAN_MOTION_DOT":"-0.00019349","ELEMENT_SET_NO":"999","TLE_LINE1":"1 49755U 21115AH  22053.91667824 -.00019349  00000-0 -12000-2 0  9998","MEAN_ANOMALY":"30.5740","OBJECT_NAME":"STARLINK-3210","COUNTRY_CODE":"US","ARG_OF_PERICENTER":"51.8508","LAUNCH_DATE":"2021-12-02","REV_AT_EPOCH":"361","TIME_SYSTEM":"UTC","FILE":"3314780","ECCENTRICITY":"0.00018810","GP_ID":"196686169","MEAN_MOTION":"15.08865109","PERIAPSIS":"538.367","REF_FRAME":"TEME","EPOCH":"2022-02-22T22:00:00.999936","PERIOD":"95.436","RA_OF_ASC_NODE":"294.1063","APOAPSIS":"540.970","RCS_SIZE":"LARGE","MEAN_ELEMENT_THEORY":"SGP4","DECAY_DATE":null,"NORAD_CAT_ID":"49755","OBJECT_TYPE":"PAYLOAD","MEAN_MOTION_DDOT":"0.0000000000000","CLASSIFICATION_TYPE":"U"},{"FILE":"3314780","TIME_SYSTEM":"UTC","GP_ID":"196686420","ECCENTRICITY":"0.00036410","ARG_OF_PERICENTER":"12.4079","REV_AT_EPOCH":"364","LAUNCH_DATE":"2021-12-02","ELEMENT_SET_NO":"999","SITE":"AFETR","MEAN_MOTION_DOT":"-0.00045728","EPHEMERIS_TYPE":"0","COUNTRY_CODE":"US","OBJECT_NAME":"STARLINK-3207","MEAN_ANOMALY":"100.6080","TLE_LINE1":"1 49756U 21115AJ  22053.91667824 -.00045728  00000-0 -11069-2 0  9993","OBJECT_ID":"2021-115AJ","INCLINATION":"53.2168","TLE_LINE2":"2 49756  53.2168 291.0867 0003641  12.4079 100.6080 15.40504399  3646","SEMIMAJOR_AXIS":"6822.757","CENTER_NAME":"EARTH","BSTAR":"-0.00110690000000","OBJECT_TYPE":"PAYLOAD","CLASSIFICATION_TYPE":"U","MEAN_MOTION_DDOT":"0.0000000000000","DECAY_DATE":null,"MEAN_ELEMENT_THEORY":"SGP4","RCS_SIZE":"LARGE","NORAD_CAT_ID":"49756","PERIOD":"93.476","RA_OF_ASC_NODE":"291.0867","EPOCH":"2022-02-22T22:00:00.999936","APOAPSIS":"447.106","PERIAPSIS":"442.137","MEAN_MOTION":"15.40504399","REF_FRAME":"TEME"},{"REV_AT_EPOCH":"364","LAUNCH_DATE":"2021-12-02","ARG_OF_PERICENTER":"14.9159","GP_ID":"196686671","ECCENTRICITY":"0.00034370","TIME_SYSTEM":"UTC","FILE":"3314780","TLE_LINE2":"2 49757  53.2173 291.0842 0003437  14.9159 101.1726 15.40469861  3642","SEMIMAJOR_AXIS":"6822.859","CENTER_NAME":"EARTH","BSTAR":"0.00027717000000","INCLINATION":"53.2173","OBJECT_ID":"2021-115AK","COUNTRY_CODE":"US","OBJECT_NAME":"STARLINK-3197","TLE_LINE1":"1 49757U 21115AK  22053.91667824  .00011015  00000-0  27717-3 0  9992","MEAN_ANOMALY":"101.1726","SITE":"AFETR","ELEMENT_SET_NO":"999","MEAN_MOTION_DOT":"0.00011015","EPHEMERIS_TYPE":"0","NORAD_CAT_ID":"49757","DECAY_DATE":null,"MEAN_ELEMENT_THEORY":"SGP4","RCS_SIZE":"LARGE","CLASSIFICATION_TYPE":"U","MEAN_MOTION_DDOT":"0.0000000000000","OBJECT_TYPE":"PAYLOAD","REF_FRAME":"TEME","PERIAPSIS":"442.379","MEAN_MOTION":"15.40469861","APOAPSIS":"447.069","PERIOD":"93.478","RA_OF_ASC_NODE":"291.0842","EPOCH":"2022-02-22T22:00:00.999936"},{"GP_ID":"196685419","ECCENTRICITY":"0.00032450","TIME_SYSTEM":"UTC","FILE":"3314780","REV_AT_EPOCH":"364","LAUNCH_DATE":"2021-12-02","ARG_OF_PERICENTER":"16.2745","COUNTRY_CODE":"US","TLE_LINE1":"1 49758U 21115AL  22053.91667824 -.00037967  00000-0 -91658-3 0  9994","MEAN_ANOMALY":"94.6194","OBJECT_NAME":"STARLINK-3194","EPHEMERIS_TYPE":"0","SITE":"AFETR","ELEMENT_SET_NO":"999","MEAN_MOTION_DOT":"-0.00037967","SEMIMAJOR_AXIS":"6822.764","TLE_LINE2":"2 49758  53.2168 291.0900 0003245  16.2745  94.6194 15.40501858  3643","BSTAR":"-0.00091658000000","CENTER_NAME":"EARTH","OBJECT_ID":"2021-115AL","INCLINATION":"53.2168","MEAN_MOTION_DDOT":"0.0000000000000","CLASSIFICATION_TYPE":"U","OBJECT_TYPE":"PAYLOAD","NORAD_CAT_ID":"49758","DECAY_DATE":null,"RCS_SIZE":"LARGE","MEAN_ELEMENT_THEORY":"SGP4","APOAPSIS":"446.843","RA_OF_ASC_NODE":"291.0900","PERIOD":"93.476","EPOCH":"2022-02-22T22:00:00.999936","REF_FRAME":"TEME","PERIAPSIS":"442.415","MEAN_MOTION":"15.40501858"}];
